{
    "links": {
        "self": "http://www.neowsapp.com/rest/v1/neo/3884020?api_key=iIulBulltgU6a56xZRHN4H3l9WmuAYTsLGpBGhQ2"
    },
    "id": "3884020",
    "neo_reference_id": "3884020",
    "name": "(2019 UG9)",
    "designation": "2019 UG9",
    "nasa_jpl_url": "http://ssd.jpl.nasa.gov/sbdb.cgi?sstr=3884020",
    "absolute_magnitude_h": 24.7,
    "estimated_diameter": {
        "kilometers": {
            "estimated_diameter_min": 0.0305179233,
            "estimated_diameter_max": 0.0682401509
        },
        "meters": {
            "estimated_diameter_min": 30.5179232594,
            "estimated_diameter_max": 68.2401509401
        },
        "miles": {
            "estimated_diameter_min": 0.0189629525,
            "estimated_diameter_max": 0.0424024508
        },
        "feet": {
            "estimated_diameter_min": 100.1244233463,
            "estimated_diameter_max": 223.8850168104
        }
    },
    "is_potentially_hazardous_asteroid": false,
    "close_approach_data": [
        {
            "close_approach_date": "2019-11-21",
            "close_approach_date_full": "2019-Nov-21 08:17",
            "epoch_date_close_approach": 1574324220000,
            "relative_velocity": {
                "kilometers_per_second": "5.3119243113",
                "kilometers_per_hour": "19122.927520751",
                "miles_per_hour": "11882.2434919911"
            },
            "miss_distance": {
                "astronomical": "0.1069132159",
                "lunar": "41.5892409851",
                "kilometers": "15993989.373490133",
                "miles": "9938204.1560365154"
            },
            "orbiting_body": "Earth"
        },
        {
            "close_approach_date": "2162-07-22",
            "close_approach_date_full": "2162-Jul-22 18:05",
            "epoch_date_close_approach": 6076490700000,
            "relative_velocity": {
                "kilometers_per_second": "12.5023418733",
                "kilometers_per_hour": "45008.4307440222",
                "miles_per_hour": "27966.4885364731"
            },
            "miss_distance": {
                "astronomical": "0.0701566177",
                "lunar": "27.2909242853",
                "kilometers": "10495280.574324299",
                "miles": "6521464.9445373662"
            },
            "orbiting_body": "Mars"
        }
    ],
    "orbital_data": {
        "orbit_id": "5",
        "orbit_determination_date": "2019-12-02 04:55:48",
        "first_observation_date": "2019-10-25",
        "last_observation_date": "2019-12-02",
        "data_arc_in_days": 38,
        "observations_used": 29,
        "orbit_uncertainty": "7",
        "minimum_orbit_intersection": ".106885",
        "jupiter_tisserand_invariant": "3.298",
        "epoch_osculation": "2459000.5",
        "eccentricity": ".5467205865350474",
        "semi_major_axis": "2.410529307933451",
        "inclination": "1.234281012777177",
        "ascending_node_longitude": "177.7039062257002",
        "orbital_period": "1366.995393449774",
        "perihelion_distance": "1.092643310840153",
        "perihelion_argument": "241.3959773508633",
        "aphelion_distance": "3.728415305026748",
        "perihelion_time": "2458809.890302594528",
        "mean_anomaly": "50.19730965793561",
        "mean_motion": ".2633512897885468",
        "equinox": "J2000",
        "orbit_class": {
            "orbit_class_type": "AMO",
            "orbit_class_description": "Near-Earth asteroid orbits similar to that of 1221 Amor",
            "orbit_class_range": "1.017 AU < q (perihelion) < 1.3 AU"
        }
    },
    "is_sentry_object": false
}